ORBCOMM FM05            
1 25117U 97084F   26024.31515582  .00003098  00000+0  88446-3 0  9990
2 25117  45.0148  25.6169 0004305 271.9293  88.1065 14.46900820472627
ORBCOMM FM06            
1 25118U 97084G   26024.23615766  .00003124  00000+0  88840-3 0  9995
2 25118  45.0141  25.4641 0003250 276.5905 193.1361 14.47069793473536
ORBCOMM FM07            
1 25119U 97084H   26024.29611019  .00002835  00000+0  80989-3 0  9993
2 25119  45.0134  25.9192 0005027 266.7109  93.3168 14.47077554473536
ORBCOMM FM03            
1 25158U 98007B   26024.27690993  .00002263  00000+0  82643-3 0  9992
2 25158 107.9651 229.9658 0045902 223.8535 135.8957 14.35181179455755
ORBCOMM FM04            
1 25159U 98007C   26024.29313430  .00001913  00000+0  70409-3 0  9991
2 25159 107.9639 233.3711 0041609 221.3458 138.4529 14.35416046455947
ORBCOMM FM17            
1 25413U 98046A   26024.03868993  .00001673  00000+0  62316-3 0  9999
2 25413  44.9942 294.8880 0002704 270.0774  89.9763 14.35647459434908
ORBCOMM FM18            
1 25414U 98046B   26023.51520720  .00002266  00000+0  76821-3 0  9990
2 25414  44.9906 208.7245 0003825 312.9379  47.1148 14.39297460435989
ORBCOMM FM19            
1 25415U 98046C   26024.21724413  .00002168  00000+0  73969-3 0  9995
2 25415  44.9913 207.7232 0002570 307.4386 221.9531 14.39123880436035
